{
  "type": "FeatureCollection",
  "features": [
    {
      "type": "Feature",
      "properties": {
        "norad_id": 43647,
        "name": "BEIDOU-3 M16 (C35)",
        "group": "gnss",
        "lat": -20.806924164935012,
        "lon": -69.68425746966278,
        "alt_km": 21516.415539132227,
        "timestamp": "2025-12-21T18:54:58.739996+00:00",
        "meta_object_name": "BEIDOU-3 M16 (C35)",
        "meta_object_id": "2018-078A",
        "meta_epoch": "2025-12-21T06:57:26.662752",
        "meta_mean_motion": 1.86232383,
        "meta_eccentricity": 0.00073912,
        "meta_inclination": 54.254,
        "meta_ra_of_asc_node": 306.2225,
        "meta_arg_of_pericenter": 20.1589,
        "meta_mean_anomaly": 339.8673,
        "meta_ephemeris_type": 0,
        "meta_classification_type": "U",
        "meta_norad_cat_id": 43647,
        "meta_element_set_no": 999,
        "meta_rev_at_epoch": 4884,
        "meta_bstar": 0,
        "meta_mean_motion_dot": -6.2e-07,
        "meta_mean_motion_ddot": 0,
        "tle_line1": "1 43647U 18078A   25355.28989193 -.00000062  00000+0  00000+0 0  9994",
        "tle_line2": "2 43647  54.2540 306.2225 0007391  20.1589 339.8673  1.86232383 48840"
      },
      "geometry": {
        "type": "Point",
        "coordinates": [
          -69.68425746966278,
          -20.806924164935012
        ]
      }
    },
    {
      "type": "Feature",
      "properties": {
        "norad_id": 43648,
        "name": "BEIDOU-3 M15 (C34)",
        "group": "gnss",
        "lat": -48.56162902756893,
        "lon": -179.21794676819837,
        "alt_km": 21540.904502093283,
        "timestamp": "2025-12-21T18:54:58.740009+00:00",
        "meta_object_name": "BEIDOU-3 M15 (C34)",
        "meta_object_id": "2018-078B",
        "meta_epoch": "2025-12-21T10:03:31.555008",
        "meta_mean_motion": 1.86232355,
        "meta_eccentricity": 0.0004029,
        "meta_inclination": 54.2498,
        "meta_ra_of_asc_node": 306.2184,
        "meta_arg_of_pericenter": 19.9234,
        "meta_mean_anomaly": 340.0899,
        "meta_ephemeris_type": 0,
        "meta_classification_type": "U",
        "meta_norad_cat_id": 43648,
        "meta_element_set_no": 999,
        "meta_rev_at_epoch": 4886,
        "meta_bstar": 0,
        "meta_mean_motion_dot": -6.1e-07,
        "meta_mean_motion_ddot": 0,
        "tle_line1": "1 43648U 18078B   25355.41911522 -.00000061  00000+0  00000+0 0  9990",
        "tle_line2": "2 43648  54.2498 306.2184 0004029  19.9234 340.0899  1.86232355 48860"
      },
      "geometry": {
        "type": "Point",
        "coordinates": [
          -179.21794676819837,
          -48.56162902756893
        ]
      }
    },
    {
      "type": "Feature",
      "properties": {
        "norad_id": 43683,
        "name": "BEIDOU-3 G1 (C59)",
        "group": "gnss",
        "lat": 2.0763864156214424,
        "lon": 154.3194974358868,
        "alt_km": 35780.39015726139,
        "timestamp": "2025-12-21T18:54:58.740021+00:00",
        "meta_object_name": "BEIDOU-3 G1 (C59)",
        "meta_object_id": "2018-085A",
        "meta_epoch": "2025-12-21T13:51:51.422400",
        "meta_mean_motion": 1.0026809,
        "meta_eccentricity": 0.00015498,
        "meta_inclination": 2.6287,
        "meta_ra_of_asc_node": 102.7083,
        "meta_arg_of_pericenter": 46.1748,
        "meta_mean_anomaly": 289.4828,
        "meta_ephemeris_type": 0,
        "meta_classification_type": "U",
        "meta_norad_cat_id": 43683,
        "meta_element_set_no": 999,
        "meta_rev_at_epoch": 2627,
        "meta_bstar": 0,
        "meta_mean_motion_dot": -2.57e-06,
        "meta_mean_motion_ddot": 0,
        "tle_line1": "1 43683U 18085A   25355.57767850 -.00000257  00000+0  00000+0 0  9994",
        "tle_line2": "2 43683   2.6287 102.7083 0001549  46.1748 289.4828  1.00268090 26275"
      },
      "geometry": {
        "type": "Point",
        "coordinates": [
          154.3194974358868,
          2.0763864156214424
        ]
      }
    },
    {
      "type": "Feature",
      "properties": {
        "norad_id": 43687,
        "name": "COSMOS 2529 (757)",
        "group": "gnss",
        "lat": -9.061575912820409,
        "lon": -165.82130275562594,
        "alt_km": 19133.529941803183,
        "timestamp": "2025-12-21T18:54:58.740034+00:00",
        "meta_object_name": "COSMOS 2529 (757)",
        "meta_object_id": "2018-086A",
        "meta_epoch": "2025-12-21T07:58:09.386112",
        "meta_mean_motion": 2.13102154,
        "meta_eccentricity": 0.00069464,
        "meta_inclination": 64.2925,
        "meta_ra_of_asc_node": 198.598,
        "meta_arg_of_pericenter": 253.6032,
        "meta_mean_anomaly": 106.3925,
        "meta_ephemeris_type": 0,
        "meta_classification_type": "U",
        "meta_norad_cat_id": 43687,
        "meta_element_set_no": 999,
        "meta_rev_at_epoch": 5549,
        "meta_bstar": 0,
        "meta_mean_motion_dot": 9.7e-07,
        "meta_mean_motion_ddot": 0,
        "tle_line1": "1 43687U 18086A   25355.33205308  .00000097  00000+0  00000+0 0  9999",
        "tle_line2": "2 43687  64.2925 198.5980 0006946 253.6032 106.3925  2.13102154 55492"
      },
      "geometry": {
        "type": "Point",
        "coordinates": [
          -165.82130275562594,
          -9.061575912820409
        ]
      }
    },
    {
      "type": "Feature",
      "properties": {
        "norad_id": 43706,
        "name": "BEIDOU-3 M17 (C36)",
        "group": "gnss",
        "lat": 30.632778311434638,
        "lon": -17.023091061985856,
        "alt_km": 21541.076704478,
        "timestamp": "2025-12-21T18:54:58.740045+00:00",
        "meta_object_name": "BEIDOU-3 M17 (C36)",
        "meta_object_id": "2018-093A",
        "meta_epoch": "2025-12-20T12:04:20.840736",
        "meta_mean_motion": 1.86228485,
        "meta_eccentricity": 0.00060883,
        "meta_inclination": 54.1751,
        "meta_ra_of_asc_node": 188.3582,
        "meta_arg_of_pericenter": 307.8758,
        "meta_mean_anomaly": 51.559,
        "meta_ephemeris_type": 0,
        "meta_classification_type": "U",
        "meta_norad_cat_id": 43706,
        "meta_element_set_no": 999,
        "meta_rev_at_epoch": 4820,
        "meta_bstar": 0,
        "meta_mean_motion_dot": 9.7e-07,
        "meta_mean_motion_ddot": 0,
        "tle_line1": "1 43706U 18093A   25354.50301899  .00000097  00000+0  00000+0 0  9999",
        "tle_line2": "2 43706  54.1751 188.3582 0006088 307.8758  51.5590  1.86228485 48203"
      },
      "geometry": {
        "type": "Point",
        "coordinates": [
          -17.023091061985856,
          30.632778311434638
        ]
      }
    },
    {
      "type": "Feature",
      "properties": {
        "norad_id": 43707,
        "name": "BEIDOU-3 M18 (C37)",
        "group": "gnss",
        "lat": -40.86094540265976,
        "lon": 47.014140176570145,
        "alt_km": 21541.952544538548,
        "timestamp": "2025-12-21T18:54:58.740056+00:00",
        "meta_object_name": "BEIDOU-3 M18 (C37)",
        "meta_object_id": "2018-093B",
        "meta_epoch": "2025-12-20T21:39:28.587744",
        "meta_mean_motion": 1.86226757,
        "meta_eccentricity": 0.00062168,
        "meta_inclination": 54.1741,
        "meta_ra_of_asc_node": 188.3365,
        "meta_arg_of_pericenter": 353.7926,
        "meta_mean_anomaly": 6.2524,
        "meta_ephemeris_type": 0,
        "meta_classification_type": "U",
        "meta_norad_cat_id": 43707,
        "meta_element_set_no": 999,
        "meta_rev_at_epoch": 4821,
        "meta_bstar": 0,
        "meta_mean_motion_dot": 9.5e-07,
        "meta_mean_motion_ddot": 0,
        "tle_line1": "1 43707U 18093B   25354.90241421  .00000095  00000+0  00000+0 0  9996",
        "tle_line2": "2 43707  54.1741 188.3365 0006216 353.7926   6.2524  1.86226757 48217"
      },
      "geometry": {
        "type": "Point",
        "coordinates": [
          47.014140176570145,
          -40.86094540265976
        ]
      }
    },
    {
      "type": "Feature",
      "properties": {
        "norad_id": 43873,
        "name": "GPS BIII-1  (PRN 04)",
        "group": "gnss",
        "lat": -13.629944262414666,
        "lon": -71.24948707927574,
        "alt_km": 20085.178712948236,
        "timestamp": "2025-12-21T18:54:58.740069+00:00",
        "meta_object_name": "GPS BIII-1  (PRN 04)",
        "meta_object_id": "2018-109A",
        "meta_epoch": "2025-12-20T14:49:36.231744",
        "meta_mean_motion": 2.00553966,
        "meta_eccentricity": 0.0037575,
        "meta_inclination": 55.571,
        "meta_ra_of_asc_node": 99.2363,
        "meta_arg_of_pericenter": 195.36,
        "meta_mean_anomaly": 236.122,
        "meta_ephemeris_type": 0,
        "meta_classification_type": "U",
        "meta_norad_cat_id": 43873,
        "meta_element_set_no": 999,
        "meta_rev_at_epoch": 5149,
        "meta_bstar": 0,
        "meta_mean_motion_dot": -1.2e-07,
        "meta_mean_motion_ddot": 0,
        "tle_line1": "1 43873U 18109A   25354.61778046 -.00000012  00000+0  00000+0 0  9994",
        "tle_line2": "2 43873  55.5710  99.2363 0037575 195.3600 236.1220  2.00553966 51494"
      },
      "geometry": {
        "type": "Point",
        "coordinates": [
          -71.24948707927574,
          -13.629944262414666
        ]
      }
    }
  ]
}